[{"OBJECT_NAME":"ONEWEB-0639","OBJECT_ID":"2023-029H","EPOCH":"2025-09-02T20:06:34.232544","MEAN_MOTION":13.19725383,"ECCENTRICITY":8.493e-5,"INCLINATION":87.9279,"RA_OF_ASC_NODE":2.1179,"ARG_OF_PERICENTER":66.0912,"MEAN_ANOMALY":294.031,"EPHEMERIS_TYPE":0,"CLASSIFICATION_TYPE":"U","NORAD_CAT_ID":55803,"ELEMENT_SET_NO":999,"REV_AT_EPOCH":12100,"BSTAR":-0.00029248463,"MEAN_MOTION_DOT":-1.04e-6,"MEAN_MOTION_DDOT":0},{"OBJECT_NAME":"ONEWEB-0640","OBJECT_ID":"2023-029J","EPOCH":"2025-09-02T19:54:37.251648","MEAN_MOTION":13.14502492,"ECCENTRICITY":0.00019576,"INCLINATION":87.9093,"RA_OF_ASC_NODE":346.9596,"ARG_OF_PERICENTER":77.3462,"MEAN_ANOMALY":282.7887,"EPHEMERIS_TYPE":0,"CLASSIFICATION_TYPE":"U","NORAD_CAT_ID":55804,"ELEMENT_SET_NO":999,"REV_AT_EPOCH":12166,"BSTAR":-0.00021822839,"MEAN_MOTION_DOT":-6.8e-7,"MEAN_MOTION_DDOT":0},{"OBJECT_NAME":"ONEWEB-0641","OBJECT_ID":"2023-029K","EPOCH":"2025-09-02T19:59:44.549664","MEAN_MOTION":13.19724598,"ECCENTRICITY":0.00016022,"INCLINATION":87.9285,"RA_OF_ASC_NODE":2.0914,"ARG_OF_PERICENTER":96.6973,"MEAN_ANOMALY":263.4342,"EPHEMERIS_TYPE":0,"CLASSIFICATION_TYPE":"U","NORAD_CAT_ID":55805,"ELEMENT_SET_NO":999,"REV_AT_EPOCH":12101,"BSTAR":0.00088467307,"MEAN_MOTION_DOT":3.67e-6,"MEAN_MOTION_DDOT":0},{"OBJECT_NAME":"ONEWEB-0642","OBJECT_ID":"2023-029L","EPOCH":"2025-09-02T19:52:55.005888","MEAN_MOTION":13.19723969,"ECCENTRICITY":8.753e-5,"INCLINATION":87.9277,"RA_OF_ASC_NODE":2.1273,"ARG_OF_PERICENTER":92.1161,"MEAN_ANOMALY":268.0072,"EPHEMERIS_TYPE":0,"CLASSIFICATION_TYPE":"U","NORAD_CAT_ID":55806,"ELEMENT_SET_NO":999,"REV_AT_EPOCH":12100,"BSTAR":-5.4123129e-5,"MEAN_MOTION_DOT":-9.0e-8,"MEAN_MOTION_DDOT":0},{"OBJECT_NAME":"ONEWEB-0643","OBJECT_ID":"2023-029M","EPOCH":"2025-09-02T19:11:13.401888","MEAN_MOTION":13.14503892,"ECCENTRICITY":0.00011248,"INCLINATION":87.9093,"RA_OF_ASC_NODE":346.9488,"ARG_OF_PERICENTER":112.5433,"MEAN_ANOMALY":247.5816,"EPHEMERIS_TYPE":0,"CLASSIFICATION_TYPE":"U","NORAD_CAT_ID":55807,"ELEMENT_SET_NO":999,"REV_AT_EPOCH":12163,"BSTAR":0.00033146778,"MEAN_MOTION_DOT":1.36e-6,"MEAN_MOTION_DDOT":0},{"OBJECT_NAME":"ONEWEB-0644","OBJECT_ID":"2023-029N","EPOCH":"2025-09-02T19:46:05.859552","MEAN_MOTION":13.19723448,"ECCENTRICITY":0.00012934,"INCLINATION":87.9278,"RA_OF_ASC_NODE":2.1356,"ARG_OF_PERICENTER":96.7853,"MEAN_ANOMALY":263.3427,"EPHEMERIS_TYPE":0,"CLASSIFICATION_TYPE":"U","NORAD_CAT_ID":55808,"ELEMENT_SET_NO":999,"REV_AT_EPOCH":12100,"BSTAR":0.00011596704,"MEAN_MOTION_DOT":5.9e-7,"MEAN_MOTION_DDOT":0},{"OBJECT_NAME":"ONEWEB-0645","OBJECT_ID":"2023-029P","EPOCH":"2025-09-02T19:40:25.787424","MEAN_MOTION":13.19725595,"ECCENTRICITY":0.00017051,"INCLINATION":87.9268,"RA_OF_ASC_NODE":2.1233,"ARG_OF_PERICENTER":88.7284,"MEAN_ANOMALY":271.4044,"EPHEMERIS_TYPE":0,"CLASSIFICATION_TYPE":"U","NORAD_CAT_ID":55809,"ELEMENT_SET_NO":999,"REV_AT_EPOCH":12100,"BSTAR":0.0001260357,"MEAN_MOTION_DOT":6.3e-7,"MEAN_MOTION_DDOT":0},{"OBJECT_NAME":"ONEWEB-0646","OBJECT_ID":"2023-029Q","EPOCH":"2025-09-02T20:36:47.756448","MEAN_MOTION":13.19255102,"ECCENTRICITY":0.0001526,"INCLINATION":87.9268,"RA_OF_ASC_NODE":2.1115,"ARG_OF_PERICENTER":100.8996,"MEAN_ANOMALY":259.2308,"EPHEMERIS_TYPE":0,"CLASSIFICATION_TYPE":"U","NORAD_CAT_ID":55810,"ELEMENT_SET_NO":999,"REV_AT_EPOCH":12099,"BSTAR":-4.71577e-5,"MEAN_MOTION_DOT":-6.0e-8,"MEAN_MOTION_DDOT":0},{"OBJECT_NAME":"ONEWEB-0648","OBJECT_ID":"2023-029R","EPOCH":"2025-09-02T18:25:33.447936","MEAN_MOTION":13.14504314,"ECCENTRICITY":0.00011756,"INCLINATION":87.9081,"RA_OF_ASC_NODE":346.927,"ARG_OF_PERICENTER":71.0463,"MEAN_ANOMALY":289.0794,"EPHEMERIS_TYPE":0,"CLASSIFICATION_TYPE":"U","NORAD_CAT_ID":55811,"ELEMENT_SET_NO":999,"REV_AT_EPOCH":12163,"BSTAR":-0.00064318186,"MEAN_MOTION_DOT":-2.26e-6,"MEAN_MOTION_DDOT":0},{"OBJECT_NAME":"ONEWEB-0649","OBJECT_ID":"2023-029S","EPOCH":"2025-09-02T21:19:21.896832","MEAN_MOTION":13.19725028,"ECCENTRICITY":0.00014126,"INCLINATION":87.9277,"RA_OF_ASC_NODE":2.0979,"ARG_OF_PERICENTER":88.1219,"MEAN_ANOMALY":272.0075,"EPHEMERIS_TYPE":0,"CLASSIFICATION_TYPE":"U","NORAD_CAT_ID":55812,"ELEMENT_SET_NO":999,"REV_AT_EPOCH":12103,"BSTAR":-0.00013636472,"MEAN_MOTION_DOT":-4.2e-7,"MEAN_MOTION_DDOT":0},{"OBJECT_NAME":"ONEWEB-0650","OBJECT_ID":"2023-029T","EPOCH":"2025-09-02T21:12:32.765184","MEAN_MOTION":13.19725671,"ECCENTRICITY":0.00015975,"INCLINATION":87.9275,"RA_OF_ASC_NODE":2.1098,"ARG_OF_PERICENTER":98.3655,"MEAN_ANOMALY":261.7659,"EPHEMERIS_TYPE":0,"CLASSIFICATION_TYPE":"U","NORAD_CAT_ID":55813,"ELEMENT_SET_NO":999,"REV_AT_EPOCH":12100,"BSTAR":-6.7208608e-5,"MEAN_MOTION_DOT":-1.4e-7,"MEAN_MOTION_DDOT":0},{"OBJECT_NAME":"ONEWEB-0652","OBJECT_ID":"2023-029U","EPOCH":"2025-09-02T19:47:46.275360","MEAN_MOTION":13.14502641,"ECCENTRICITY":0.00019903,"INCLINATION":87.9091,"RA_OF_ASC_NODE":346.9292,"ARG_OF_PERICENTER":101.9967,"MEAN_ANOMALY":258.1386,"EPHEMERIS_TYPE":0,"CLASSIFICATION_TYPE":"U","NORAD_CAT_ID":55814,"ELEMENT_SET_NO":999,"REV_AT_EPOCH":12161,"BSTAR":0.00015217994,"MEAN_MOTION_DOT":6.9e-7,"MEAN_MOTION_DDOT":0},{"OBJECT_NAME":"ONEWEB-0653","OBJECT_ID":"2023-029V","EPOCH":"2025-09-02T19:24:56.295360","MEAN_MOTION":13.14503228,"ECCENTRICITY":0.00020167,"INCLINATION":87.9094,"RA_OF_ASC_NODE":346.922,"ARG_OF_PERICENTER":95.9276,"MEAN_ANOMALY":264.2084,"EPHEMERIS_TYPE":0,"CLASSIFICATION_TYPE":"U","NORAD_CAT_ID":55815,"ELEMENT_SET_NO":999,"REV_AT_EPOCH":12164,"BSTAR":0.00040104518,"MEAN_MOTION_DOT":1.61e-6,"MEAN_MOTION_DDOT":0},{"OBJECT_NAME":"ONEWEB-0654","OBJECT_ID":"2023-029W","EPOCH":"2025-09-02T19:18:03.880512","MEAN_MOTION":13.14504104,"ECCENTRICITY":0.00022127,"INCLINATION":87.9092,"RA_OF_ASC_NODE":346.9212,"ARG_OF_PERICENTER":101.9329,"MEAN_ANOMALY":258.2049,"EPHEMERIS_TYPE":0,"CLASSIFICATION_TYPE":"U","NORAD_CAT_ID":55816,"ELEMENT_SET_NO":999,"REV_AT_EPOCH":12166,"BSTAR":0.00036980978,"MEAN_MOTION_DOT":1.5e-6,"MEAN_MOTION_DDOT":0},{"OBJECT_NAME":"ONEWEB-0656","OBJECT_ID":"2023-029X","EPOCH":"2025-09-02T18:47:15.422496","MEAN_MOTION":13.20772085,"ECCENTRICITY":0.00023342,"INCLINATION":87.9295,"RA_OF_ASC_NODE":331.711,"ARG_OF_PERICENTER":101.1715,"MEAN_ANOMALY":258.9681,"EPHEMERIS_TYPE":0,"CLASSIFICATION_TYPE":"U","NORAD_CAT_ID":55817,"ELEMENT_SET_NO":999,"REV_AT_EPOCH":12321,"BSTAR":5.2479002e-5,"MEAN_MOTION_DOT":3.4e-7,"MEAN_MOTION_DDOT":0},{"OBJECT_NAME":"ONEWEB-0657","OBJECT_ID":"2023-029Y","EPOCH":"2025-09-02T21:05:43.793376","MEAN_MOTION":13.19726687,"ECCENTRICITY":0.00021093,"INCLINATION":87.9276,"RA_OF_ASC_NODE":2.1154,"ARG_OF_PERICENTER":120.5689,"MEAN_ANOMALY":239.5652,"EPHEMERIS_TYPE":0,"CLASSIFICATION_TYPE":"U","NORAD_CAT_ID":55818,"ELEMENT_SET_NO":999,"REV_AT_EPOCH":12101,"BSTAR":7.0473471e-5,"MEAN_MOTION_DOT":4.1e-7,"MEAN_MOTION_DDOT":0},{"OBJECT_NAME":"ONEWEB-0658","OBJECT_ID":"2023-029Z","EPOCH":"2025-09-02T19:09:43.387776","MEAN_MOTION":13.19725395,"ECCENTRICITY":0.00012931,"INCLINATION":87.9288,"RA_OF_ASC_NODE":2.0678,"ARG_OF_PERICENTER":97.0205,"MEAN_ANOMALY":263.1074,"EPHEMERIS_TYPE":0,"CLASSIFICATION_TYPE":"U","NORAD_CAT_ID":55819,"ELEMENT_SET_NO":999,"REV_AT_EPOCH":12101,"BSTAR":4.1369812e-5,"MEAN_MOTION_DOT":2.9e-7,"MEAN_MOTION_DDOT":0}]
