ONEWEB-0639             
1 55803U 23029H   25245.83789621 -.00000104  00000+0 -29248-3 0  9993
2 55803  87.9279   2.1179 0000849  66.0912 294.0310 13.19725383121005
ONEWEB-0640             
1 55804U 23029J   25245.82959782 -.00000068  00000+0 -21823-3 0  9990
2 55804  87.9093 346.9596 0001957  77.3462 282.7887 13.14502492121662
ONEWEB-0641             
1 55805U 23029K   25245.83315451  .00000367  00000+0  88467-3 0  9998
2 55805  87.9285   2.0914 0001602  96.6973 263.4342 13.19724598121017
ONEWEB-0642             
1 55806U 23029L   25245.82841442 -.00000009  00000+0 -54123-4 0  9990
2 55806  87.9277   2.1273 0000875  92.1161 268.0072 13.19723969121000
ONEWEB-0643             
1 55807U 23029M   25245.79946067  .00000136  00000+0  33147-3 0  9997
2 55807  87.9093 346.9488 0001124 112.5433 247.5816 13.14503892121634
ONEWEB-0644             
1 55808U 23029N   25245.82367893  .00000059  00000+0  11597-3 0  9995
2 55808  87.9278   2.1356 0001293  96.7853 263.3427 13.19723448121002
ONEWEB-0645             
1 55809U 23029P   25245.81974291  .00000063  00000+0  12604-3 0  9996
2 55809  87.9268   2.1233 0001705  88.7284 271.4044 13.19725595121003
ONEWEB-0646             
1 55810U 23029Q   25245.85888607 -.00000006  00000+0 -47158-4 0  9999
2 55810  87.9268   2.1115 0001526 100.8996 259.2308 13.19255102120997
ONEWEB-0648             
1 55811U 23029R   25245.76774824 -.00000226  00000+0 -64318-3 0  9995
2 55811  87.9081 346.9270 0001175  71.0463 289.0794 13.14504314121639
ONEWEB-0649             
1 55812U 23029S   25245.88844788 -.00000042  00000+0 -13636-3 0  9999
2 55812  87.9277   2.0979 0001412  88.1219 272.0075 13.19725028121035
ONEWEB-0650             
1 55813U 23029T   25245.88371256 -.00000014  00000+0 -67209-4 0  9990
2 55813  87.9275   2.1098 0001597  98.3655 261.7659 13.19725671121002
ONEWEB-0652             
1 55814U 23029U   25245.82484115  .00000069  00000+0  15218-3 0  9994
2 55814  87.9091 346.9292 0001990 101.9967 258.1386 13.14502641121617
ONEWEB-0653             
1 55815U 23029V   25245.80898490  .00000161  00000+0  40105-3 0  9994
2 55815  87.9094 346.9220 0002016  95.9276 264.2084 13.14503228121645
ONEWEB-0654             
1 55816U 23029W   25245.80421158  .00000150  00000+0  36981-3 0  9993
2 55816  87.9092 346.9212 0002212 101.9329 258.2049 13.14504104121660
ONEWEB-0656             
1 55817U 23029X   25245.78281739  .00000034  00000+0  52479-4 0  9992
2 55817  87.9295 331.7110 0002334 101.1715 258.9681 13.20772085123215
ONEWEB-0657             
1 55818U 23029Y   25245.87897909  .00000041  00000+0  70473-4 0  9997
2 55818  87.9276   2.1154 0002109 120.5689 239.5652 13.19726687121011
ONEWEB-0658             
1 55819U 23029Z   25245.79841884  .00000029  00000+0  41370-4 0  9990
2 55819  87.9288   2.0678 0001293  97.0205 263.1074 13.19725395121016
